[{"OBJECT_NAME":"SCS-01 D","OBJECT_ID":"2025-100D","EPOCH":"2026-03-09T18:08:45.040704","MEAN_MOTION":15.31902149,"ECCENTRICITY":0.00063457,"INCLINATION":97.373,"RA_OF_ASC_NODE":145.4097,"ARG_OF_PERICENTER":266.2302,"MEAN_ANOMALY":93.8214,"EPHEMERIS_TYPE":0,"CLASSIFICATION_TYPE":"U","NORAD_CAT_ID":63985,"ELEMENT_SET_NO":999,"REV_AT_EPOCH":4562,"BSTAR":0.0010528181,"MEAN_MOTION_DOT":0.00032471,"MEAN_MOTION_DDOT":0},{"OBJECT_NAME":"STARLINK-35942","OBJECT_ID":"2025-286B","EPOCH":"2026-03-09T03:14:49.163136","MEAN_MOTION":15.30183767,"ECCENTRICITY":0.00015205,"INCLINATION":53.1621,"RA_OF_ASC_NODE":0.903,"ARG_OF_PERICENTER":51.6518,"MEAN_ANOMALY":308.462,"EPHEMERIS_TYPE":0,"CLASSIFICATION_TYPE":"U","NORAD_CAT_ID":66926,"ELEMENT_SET_NO":999,"REV_AT_EPOCH":1533,"BSTAR":0.0006344393,"MEAN_MOTION_DOT":0.00018468,"MEAN_MOTION_DDOT":0}]
